[
  {
    "OBJECT_NAME": "STARLINK-11569 [DTC]",
    "OBJECT_ID": "25027D",
    "EPOCH": "2025-11-11T02:36:34.954560",
    "MEAN_MOTION": 15.70921764,
    "ECCENTRICITY": 0.0001328,
    "INCLINATION": 42.9996,
    "RA_OF_ASC_NODE": 342.3233,
    "ARG_OF_PERICENTER": 241.5766,
    "MEAN_ANOMALY": 118.4968,
    "EPHEMERIS_TYPE": 0,
    "CLASSIFICATION_TYPE": "U",
    "NORAD_CAT_ID": 62910,
    "ELEMENT_SET_NO": 999,
    "REV_AT_EPOCH": 4450,
    "BSTAR": 0.0023611,
    "MEAN_MOTION_DOT": 0.00315373,
    "MEAN_MOTION_DDOT": 0.0,
    "TLE_LINE1": "1 62910U 25027D   25315.10873790  .00315373  00000+0  23611-2 0  9991",
    "TLE_LINE2": "2 62910  42.9996 342.3233 0001328 241.5766 118.4968 15.70921764 44506",
    "COMMENT": "Grouped by shell and plane from TLE"
  },
  {
    "OBJECT_NAME": "STARLINK-11537 [DTC]",
    "OBJECT_ID": "25027E",
    "EPOCH": "2025-11-11T02:51:52.361856",
    "MEAN_MOTION": 15.70925109,
    "ECCENTRICITY": 0.0001285,
    "INCLINATION": 42.9994,
    "RA_OF_ASC_NODE": 342.408,
    "ARG_OF_PERICENTER": 253.82,
    "MEAN_ANOMALY": 106.2527,
    "EPHEMERIS_TYPE": 0,
    "CLASSIFICATION_TYPE": "U",
    "NORAD_CAT_ID": 62911,
    "ELEMENT_SET_NO": 999,
    "REV_AT_EPOCH": 4454,
    "BSTAR": 0.0024407,
    "MEAN_MOTION_DOT": 0.00326515,
    "MEAN_MOTION_DDOT": 0.0,
    "TLE_LINE1": "1 62911U 25027E   25315.11935604  .00326515  00000+0  24407-2 0  9990",
    "TLE_LINE2": "2 62911  42.9994 342.4080 0001285 253.8200 106.2527 15.70925109 44544",
    "COMMENT": "Grouped by shell and plane from TLE"
  },
  {
    "OBJECT_NAME": "STARLINK-11565 [DTC]",
    "OBJECT_ID": "25027F",
    "EPOCH": "2025-11-11T06:40:40.672128",
    "MEAN_MOTION": 15.70893461,
    "ECCENTRICITY": 0.0001443,
    "INCLINATION": 43.0004,
    "RA_OF_ASC_NODE": 340.9987,
    "ARG_OF_PERICENTER": 262.981,
    "MEAN_ANOMALY": 97.0893,
    "EPHEMERIS_TYPE": 0,
    "CLASSIFICATION_TYPE": "U",
    "NORAD_CAT_ID": 62912,
    "ELEMENT_SET_NO": 999,
    "REV_AT_EPOCH": 4453,
    "BSTAR": 0.0011588,
    "MEAN_MOTION_DOT": 0.00151318,
    "MEAN_MOTION_DDOT": 0.0,
    "TLE_LINE1": "1 62912U 25027F   25315.27824852  .00151318  00000+0  11588-2 0  9993",
    "TLE_LINE2": "2 62912  43.0004 340.9987 0001443 262.9810  97.0893 15.70893461 44539",
    "COMMENT": "Grouped by shell and plane from TLE"
  },
  {
    "OBJECT_NAME": "STARLINK-11564 [DTC]",
    "OBJECT_ID": "25027G",
    "EPOCH": "2025-11-11T04:38:43.148544",
    "MEAN_MOTION": 15.70914177,
    "ECCENTRICITY": 0.000114,
    "INCLINATION": 42.9993,
    "RA_OF_ASC_NODE": 342.1078,
    "ARG_OF_PERICENTER": 245.862,
    "MEAN_ANOMALY": 114.2128,
    "EPHEMERIS_TYPE": 0,
    "CLASSIFICATION_TYPE": "U",
    "NORAD_CAT_ID": 62913,
    "ELEMENT_SET_NO": 999,
    "REV_AT_EPOCH": 4451,
    "BSTAR": 0.0031595,
    "MEAN_MOTION_DOT": 0.00427886,
    "MEAN_MOTION_DDOT": 0.0,
    "TLE_LINE1": "1 62913U 25027G   25315.19355496  .00427886  00000+0  31595-2 0  9994",
    "TLE_LINE2": "2 62913  42.9993 342.1078 0001140 245.8620 114.2128 15.70914177 44512",
    "COMMENT": "Grouped by shell and plane from TLE"
  },
  {
    "OBJECT_NAME": "STARLINK-11566 [DTC]",
    "OBJECT_ID": "25027H",
    "EPOCH": "2025-11-11T03:14:48.727680",
    "MEAN_MOTION": 15.70876298,
    "ECCENTRICITY": 0.0003607,
    "INCLINATION": 43.0006,
    "RA_OF_ASC_NODE": 342.5338,
    "ARG_OF_PERICENTER": 284.6039,
    "MEAN_ANOMALY": 75.4428,
    "EPHEMERIS_TYPE": 0,
    "CLASSIFICATION_TYPE": "U",
    "NORAD_CAT_ID": 62914,
    "ELEMENT_SET_NO": 999,
    "REV_AT_EPOCH": 4454,
    "BSTAR": 0.0023042,
    "MEAN_MOTION_DOT": 0.00306886,
    "MEAN_MOTION_DDOT": 0.0,
    "TLE_LINE1": "1 62914U 25027H   25315.13528620  .00306886  00000+0  23042-2 0  9994",
    "TLE_LINE2": "2 62914  43.0006 342.5338 0003607 284.6039  75.4428 15.70876298 44543",
    "COMMENT": "Grouped by shell and plane from TLE"
  },
  {
    "OBJECT_NAME": "STARLINK-11555 [DTC]",
    "OBJECT_ID": "25027J",
    "EPOCH": "2025-11-11T03:16:07.269600",
    "MEAN_MOTION": 15.70876275,
    "ECCENTRICITY": 0.0002478,
    "INCLINATION": 42.9984,
    "RA_OF_ASC_NODE": 342.5402,
    "ARG_OF_PERICENTER": 280.1706,
    "MEAN_ANOMALY": 79.8882,
    "EPHEMERIS_TYPE": 0,
    "CLASSIFICATION_TYPE": "U",
    "NORAD_CAT_ID": 62915,
    "ELEMENT_SET_NO": 999,
    "REV_AT_EPOCH": 4454,
    "BSTAR": 0.0021116,
    "MEAN_MOTION_DOT": 0.00280272,
    "MEAN_MOTION_DDOT": 0.0,
    "TLE_LINE1": "1 62915U 25027J   25315.13619525  .00280272  00000+0  21116-2 0  9990",
    "TLE_LINE2": "2 62915  42.9984 342.5402 0002478 280.1706  79.8882 15.70876275 44543",
    "COMMENT": "Grouped by shell and plane from TLE"
  },
  {
    "OBJECT_NAME": "STARLINK-11430 [DTC]",
    "OBJECT_ID": "25027K",
    "EPOCH": "2025-11-11T01:58:32.666592",
    "MEAN_MOTION": 15.70965246,
    "ECCENTRICITY": 0.000465,
    "INCLINATION": 43.0008,
    "RA_OF_ASC_NODE": 343.0036,
    "ARG_OF_PERICENTER": 290.2148,
    "MEAN_ANOMALY": 69.8219,
    "EPHEMERIS_TYPE": 0,
    "CLASSIFICATION_TYPE": "U",
    "NORAD_CAT_ID": 62916,
    "ELEMENT_SET_NO": 999,
    "REV_AT_EPOCH": 4453,
    "BSTAR": 0.0014034,
    "MEAN_MOTION_DOT": 0.00184727,
    "MEAN_MOTION_DDOT": 0.0,
    "TLE_LINE1": "1 62916U 25027K   25315.08232253  .00184727  00000+0  14034-2 0  9993",
    "TLE_LINE2": "2 62916  43.0008 343.0036 0004650 290.2148  69.8219 15.70965246 44537",
    "COMMENT": "Grouped by shell and plane from TLE"
  },
  {
    "OBJECT_NAME": "STARLINK-11560 [DTC]",
    "OBJECT_ID": "25027L",
    "EPOCH": "2025-11-11T02:44:13.561440",
    "MEAN_MOTION": 15.70928117,
    "ECCENTRICITY": 0.0001942,
    "INCLINATION": 43.0012,
    "RA_OF_ASC_NODE": 342.3622,
    "ARG_OF_PERICENTER": 256.8789,
    "MEAN_ANOMALY": 103.1862,
    "EPHEMERIS_TYPE": 0,
    "CLASSIFICATION_TYPE": "U",
    "NORAD_CAT_ID": 62917,
    "ELEMENT_SET_NO": 999,
    "REV_AT_EPOCH": 4450,
    "BSTAR": 0.0028588999999999997,
    "MEAN_MOTION_DOT": 0.00385334,
    "MEAN_MOTION_DDOT": 0.0,
    "TLE_LINE1": "1 62917U 25027L   25315.11404585  .00385334  00000+0  28589-2 0  9994",
    "TLE_LINE2": "2 62917  43.0012 342.3622 0001942 256.8789 103.1862 15.70928117 44505",
    "COMMENT": "Grouped by shell and plane from TLE"
  },
  {
    "OBJECT_NAME": "STARLINK-11562 [DTC]",
    "OBJECT_ID": "25027M",
    "EPOCH": "2025-11-11T02:28:56.084160",
    "MEAN_MOTION": 15.70934463,
    "ECCENTRICITY": 0.0001412,
    "INCLINATION": 43.0015,
    "RA_OF_ASC_NODE": 342.2771,
    "ARG_OF_PERICENTER": 227.263,
    "MEAN_ANOMALY": 132.8119,
    "EPHEMERIS_TYPE": 0,
    "CLASSIFICATION_TYPE": "U",
    "NORAD_CAT_ID": 62918,
    "ELEMENT_SET_NO": 999,
    "REV_AT_EPOCH": 4454,
    "BSTAR": 0.0023613,
    "MEAN_MOTION_DOT": 0.00315576,
    "MEAN_MOTION_DDOT": 0.0,
    "TLE_LINE1": "1 62918U 25027M   25315.10342690  .00315576  00000+0  23613-2 0  9996",
    "TLE_LINE2": "2 62918  43.0015 342.2771 0001412 227.2630 132.8119 15.70934463 44541",
    "COMMENT": "Grouped by shell and plane from TLE"
  },
  {
    "OBJECT_NAME": "STARLINK-11457 [DTC]",
    "OBJECT_ID": "25027N",
    "EPOCH": "2025-11-11T02:13:38.774496",
    "MEAN_MOTION": 15.70996909,
    "ECCENTRICITY": 0.0001428,
    "INCLINATION": 42.9979,
    "RA_OF_ASC_NODE": 342.1888,
    "ARG_OF_PERICENTER": 228.7278,
    "MEAN_ANOMALY": 131.3467,
    "EPHEMERIS_TYPE": 0,
    "CLASSIFICATION_TYPE": "U",
    "NORAD_CAT_ID": 62919,
    "ELEMENT_SET_NO": 999,
    "REV_AT_EPOCH": 4450,
    "BSTAR": 0.0019722999999999997,
    "MEAN_MOTION_DOT": 0.00262503,
    "MEAN_MOTION_DDOT": 0.0,
    "TLE_LINE1": "1 62919U 25027N   25315.09280989  .00262503  00000+0  19723-2 0  9995",
    "TLE_LINE2": "2 62919  42.9979 342.1888 0001428 228.7278 131.3467 15.70996909 44507",
    "COMMENT": "Grouped by shell and plane from TLE"
  }
]